STARLINK-6048           
1 56459U 23064M   26068.45160384  .00003945  00000+0  33823-3 0  9999
2 56459  70.0002 144.9282 0003190 269.7038  90.3755 14.98327677155204
LEMUR-2-BALTO           
1 63395U 25052BH  26068.69493058  .00007621  00000+0  63456-3 0  9998
2 63395  97.6978 323.5166 0002279 359.2852   0.8367 14.98934076 53850
